{
  "type": "FeatureCollection",
  "features": [
    {
      "type": "Feature",
      "properties": {
        "norad_id": 41877,
        "name": "RESOURCESAT-2A",
        "group": "resource",
        "lat": -79.92175406857996,
        "lon": 110.95575632533522,
        "alt_km": 826.4871011659661,
        "timestamp": "2025-12-06T16:45:42.384249+00:00",
        "meta_object_name": "RESOURCESAT-2A",
        "meta_object_id": "2016-074A",
        "meta_epoch": "2025-12-06T07:01:33.749472",
        "meta_mean_motion": 14.21595441,
        "meta_eccentricity": 0.00011243,
        "meta_inclination": 98.7766,
        "meta_ra_of_asc_node": 50.1861,
        "meta_arg_of_pericenter": 286.2089,
        "meta_mean_anomaly": 73.8965,
        "meta_ephemeris_type": 0,
        "meta_classification_type": "U",
        "meta_norad_cat_id": 41877,
        "meta_element_set_no": 999,
        "meta_rev_at_epoch": 46689,
        "meta_bstar": 0.00018625172,
        "meta_mean_motion_dot": 3.64e-06,
        "meta_mean_motion_ddot": 0,
        "tle_line1": "1 41877U 16074A   25340.29275173  .00000364  00000+0  18625-3 0  9992",
        "tle_line2": "2 41877  98.7766  50.1861 0001124 286.2089  73.8965 14.21595441466893"
      },
      "geometry": {
        "type": "Point",
        "coordinates": [
          110.95575632533522,
          -79.92175406857996
        ]
      }
    },
    {
      "type": "Feature",
      "properties": {
        "norad_id": 41948,
        "name": "CARTOSAT-2D",
        "group": "resource",
        "lat": -37.704914933576354,
        "lon": 44.08562370151963,
        "alt_km": 516.9762194793966,
        "timestamp": "2025-12-06T16:45:42.384259+00:00",
        "meta_object_name": "CARTOSAT-2D",
        "meta_object_id": "2017-008A",
        "meta_epoch": "2025-12-06T05:51:48.385728",
        "meta_mean_motion": 15.19160475,
        "meta_eccentricity": 0.00041123,
        "meta_inclination": 97.4397,
        "meta_ra_of_asc_node": 37.8409,
        "meta_arg_of_pericenter": 184.0544,
        "meta_mean_anomaly": 176.0658,
        "meta_ephemeris_type": 0,
        "meta_classification_type": "U",
        "meta_norad_cat_id": 41948,
        "meta_element_set_no": 999,
        "meta_rev_at_epoch": 48828,
        "meta_bstar": 0.00045378153,
        "meta_mean_motion_dot": 9.478e-05,
        "meta_mean_motion_ddot": 0,
        "tle_line1": "1 41948U 17008A   25340.24431002  .00009478  00000+0  45378-3 0  9999",
        "tle_line2": "2 41948  97.4397  37.8409 0004112 184.0544 176.0658 15.19160475488284"
      },
      "geometry": {
        "type": "Point",
        "coordinates": [
          44.08562370151963,
          -37.704914933576354
        ]
      }
    },
    {
      "type": "Feature",
      "properties": {
        "norad_id": 42063,
        "name": "SENTINEL-2B",
        "group": "resource",
        "lat": 42.77764278794395,
        "lon": 45.205917523227754,
        "alt_km": 784.9699038133076,
        "timestamp": "2025-12-06T16:45:42.384269+00:00",
        "meta_object_name": "SENTINEL-2B",
        "meta_object_id": "2017-013A",
        "meta_epoch": "2025-12-06T06:29:23.122464",
        "meta_mean_motion": 14.30812204,
        "meta_eccentricity": 0.00011276,
        "meta_inclination": 98.5726,
        "meta_ra_of_asc_node": 52.8071,
        "meta_arg_of_pericenter": 97.8909,
        "meta_mean_anomaly": 262.2402,
        "meta_ephemeris_type": 0,
        "meta_classification_type": "U",
        "meta_norad_cat_id": 42063,
        "meta_element_set_no": 999,
        "meta_rev_at_epoch": 45705,
        "meta_bstar": 0.00014494637,
        "meta_mean_motion_dot": 3.36e-06,
        "meta_mean_motion_ddot": 0,
        "tle_line1": "1 42063U 17013A   25340.27040651  .00000336  00000+0  14495-3 0  9993",
        "tle_line2": "2 42063  98.5726  52.8071 0001127  97.8909 262.2402 14.30812204457054"
      },
      "geometry": {
        "type": "Point",
        "coordinates": [
          45.205917523227754,
          42.77764278794395
        ]
      }
    },
    {
      "type": "Feature",
      "properties": {
        "norad_id": 42767,
        "name": "CARTOSAT-2E",
        "group": "resource",
        "lat": -51.46617703515615,
        "lon": -151.1014356420267,
        "alt_km": 513.8557315571989,
        "timestamp": "2025-12-06T16:45:42.384298+00:00",
        "meta_object_name": "CARTOSAT-2E",
        "meta_object_id": "2017-036C",
        "meta_epoch": "2025-12-06T06:15:31.881024",
        "meta_mean_motion": 15.19223622,
        "meta_eccentricity": 0.00023473,
        "meta_inclination": 97.4564,
        "meta_ra_of_asc_node": 37.932,
        "meta_arg_of_pericenter": 270.3982,
        "meta_mean_anomaly": 89.6983,
        "meta_ephemeris_type": 0,
        "meta_classification_type": "U",
        "meta_norad_cat_id": 42767,
        "meta_element_set_no": 999,
        "meta_rev_at_epoch": 46885,
        "meta_bstar": 0.00043895871,
        "meta_mean_motion_dot": 9.182e-05,
        "meta_mean_motion_ddot": 0,
        "tle_line1": "1 42767U 17036C   25340.26078566  .00009182  00000+0  43896-3 0  9999",
        "tle_line2": "2 42767  97.4564  37.9320 0002347 270.3982  89.6983 15.19223622468851"
      },
      "geometry": {
        "type": "Point",
        "coordinates": [
          -151.1014356420267,
          -51.46617703515615
        ]
      }
    },
    {
      "type": "Feature",
      "properties": {
        "norad_id": 42920,
        "name": "FORMOSAT-5",
        "group": "resource",
        "lat": -32.457523593644446,
        "lon": 60.429191312469484,
        "alt_km": 721.4073617536833,
        "timestamp": "2025-12-06T16:45:42.384311+00:00",
        "meta_object_name": "FORMOSAT-5",
        "meta_object_id": "2017-049A",
        "meta_epoch": "2025-12-06T06:58:57.073440",
        "meta_mean_motion": 14.509996,
        "meta_eccentricity": 0.00101543,
        "meta_inclination": 98.2459,
        "meta_ra_of_asc_node": 54.7377,
        "meta_arg_of_pericenter": 317.2401,
        "meta_mean_anomaly": 42.8003,
        "meta_ephemeris_type": 0,
        "meta_classification_type": "U",
        "meta_norad_cat_id": 42920,
        "meta_element_set_no": 999,
        "meta_rev_at_epoch": 43870,
        "meta_bstar": 0.00015071396,
        "meta_mean_motion_dot": 5.52e-06,
        "meta_mean_motion_ddot": 0,
        "tle_line1": "1 42920U 17049A   25340.29093835  .00000552  00000+0  15071-3 0  9999",
        "tle_line2": "2 42920  98.2459  54.7377 0010154 317.2401  42.8003 14.50999600438700"
      },
      "geometry": {
        "type": "Point",
        "coordinates": [
          60.429191312469484,
          -32.457523593644446
        ]
      }
    },
    {
      "type": "Feature",
      "properties": {
        "norad_id": 42969,
        "name": "SENTINEL-5P",
        "group": "resource",
        "lat": -33.31121779718391,
        "lon": -74.83621078834155,
        "alt_km": 833.4196526324358,
        "timestamp": "2025-12-06T16:45:42.384322+00:00",
        "meta_object_name": "SENTINEL-5P",
        "meta_object_id": "2017-064A",
        "meta_epoch": "2025-12-06T06:46:13.688832",
        "meta_mean_motion": 14.19514985,
        "meta_eccentricity": 9.381e-05,
        "meta_inclination": 98.7775,
        "meta_ra_of_asc_node": 278.9238,
        "meta_arg_of_pericenter": 86.3466,
        "meta_mean_anomaly": 273.7817,
        "meta_ephemeris_type": 0,
        "meta_classification_type": "U",
        "meta_norad_cat_id": 42969,
        "meta_element_set_no": 999,
        "meta_rev_at_epoch": 42219,
        "meta_bstar": 0.00011047744,
        "meta_mean_motion_dot": 1.89e-06,
        "meta_mean_motion_ddot": 0,
        "tle_line1": "1 42969U 17064A   25340.28210288  .00000189  00000+0  11048-3 0  9997",
        "tle_line2": "2 42969  98.7775 278.9238 0000938  86.3466 273.7817 14.19514985422197"
      },
      "geometry": {
        "type": "Point",
        "coordinates": [
          -74.83621078834155,
          -33.31121779718391
        ]
      }
    },
    {
      "type": "Feature",
      "properties": {
        "norad_id": 42987,
        "name": "SKYSAT-C11",
        "group": "resource",
        "lat": -6.528944555825906,
        "lon": -62.81112999880025,
        "alt_km": 429.1267718345398,
        "timestamp": "2025-12-06T16:45:42.384332+00:00",
        "meta_object_name": "SKYSAT-C11",
        "meta_object_id": "2017-068A",
        "meta_epoch": "2025-12-06T03:32:22.484544",
        "meta_mean_motion": 15.47038651,
        "meta_eccentricity": 9.076e-05,
        "meta_inclination": 97.4143,
        "meta_ra_of_asc_node": 117.4787,
        "meta_arg_of_pericenter": 108.2522,
        "meta_mean_anomaly": 251.8826,
        "meta_ephemeris_type": 0,
        "meta_classification_type": "U",
        "meta_norad_cat_id": 42987,
        "meta_element_set_no": 999,
        "meta_rev_at_epoch": 45329,
        "meta_bstar": 0.00060302585,
        "meta_mean_motion_dot": 0.00030467,
        "meta_mean_motion_ddot": 0,
        "tle_line1": "1 42987U 17068A   25340.14748246  .00030467  00000+0  60303-3 0  9996",
        "tle_line2": "2 42987  97.4143 117.4787 0000907 108.2522 251.8826 15.47038651453296"
      },
      "geometry": {
        "type": "Point",
        "coordinates": [
          -62.81112999880025,
          -6.528944555825906
        ]
      }
    }
  ]
}